NIMIQ 2                 
1 27632U 02062A   26073.54679535 -.00000065  00000+0  00000+0 0  9992
2 27632   9.2269  57.8737 0006352 299.4458 262.5067  1.00271984 43236
ANIK F2                 
1 28378U 04027A   26073.54644868 -.00000049  00000+0  00000+0 0  9996
2 28378   3.0393  80.7016 0003385 306.1520 230.9175  1.00272151 40310
ANIK F1R                
1 28868U 05036A   26073.52434602 -.00000074  00000+0  00000+0 0  9990
2 28868   4.0691  77.7564 0002928 306.3166 229.5306  1.00272228 45501
ANIK F3                 
1 31102U 07009A   26073.57076214 -.00000001  00000+0  00000+0 0  9993
2 31102   0.9513  85.0487 0002712 275.2305 258.6635  1.00272370 45618
NIMIQ 4                 
1 33373U 08044A   26073.55225538 -.00000221  00000+0  00000+0 0  9992
2 33373   0.0201 118.8740 0002373 237.2188 292.8724  1.00271299 64037
TELSTAR 11N             
1 34111U 09009A   26073.06185601 -.00000251  00000+0  00000+0 0  9990
2 34111   0.0189 150.5232 0002446 197.1653 168.6936  1.00269997 45298
TERRESTAR-1             
1 35496U 09035A   26073.54644868 -.00000054  00000+0  00000+0 0  9995
2 35496   5.1035  48.8292 0003071 310.2935 258.7525  1.00273143 61181
NIMIQ 5                 
1 35873U 09050A   26073.63998028 -.00000258  00000+0  00000+0 0  9997
2 35873   0.0253 248.1383 0002690 112.5985 329.2054  1.00271591 60394
SKYTERRA 1              
1 37218U 10061A   26073.54844202 -.00000116  00000+0  00000+0 0  9993
2 37218   4.9228  50.8975 0001592 328.7927 248.5970  1.00272494 56248
TELSTAR 14R             
1 37602U 11021A   26073.55598206  .00000000  00000+0  00000+0 0  9999
2 37602   0.0250 147.8978 0002227 212.2088 309.2273  1.00268476 54882
NIMIQ 6                 
1 38342U 12026A   26073.55043537 -.00000174  00000+0  00000+0 0  9992
2 38342   0.0313 269.1058 0002505  84.6566 285.4533  1.00271616 49464
ANIK G1                 
1 39127U 13014A   26073.52434552 -.00000075  00000+0  00000+0 0  9990
2 39127   0.0289 252.9993 0002696  81.9235 278.6674  1.00272216 47308
TELSTAR 12V             
1 41036U 15068A   26073.42291088 -.00000120  00000+0  00000+0 0  9998
2 41036   0.0171 137.8627 0002564 222.5823 308.8421  1.00271814 37673
VIASAT-2                
1 42740U 17029A   26072.91287538 -.00000266  00000+0  00000+0 0  9999
2 42740   0.0237 251.7614 0000523 154.6739  23.8210  1.00271485 32247
LEO 1 (LEO VANTAGE 1)   
1 43113U 18004C   26073.61624663  .00006011  00000+0  41691-3 0  9998
2 43113  99.2472 339.5756 0352524   9.8225 350.9635 14.67241047423615
TELSTAR 19V             
1 43562U 18059A   26073.07646742 -.00000280  00000+0  00000+0 0  9996
2 43562   0.0197 170.7800 0001001 268.0214  57.4139  1.00271403 28194
TELSTAR 18V             
1 43611U 18069A   26073.45324433 -.00000294  00000+0  00000+0 0  9999
2 43611   0.0181 239.1072 0002117 117.3545 116.7669  1.00272233 27687
