[{"OBJECT_NAME":"NIMIQ 2","OBJECT_ID":"2002-062A","EPOCH":"2026-03-14T13:07:23.118240","MEAN_MOTION":1.00271984,"ECCENTRICITY":0.00063527,"INCLINATION":9.2269,"RA_OF_ASC_NODE":57.8737,"ARG_OF_PERICENTER":299.4458,"MEAN_ANOMALY":262.5067,"EPHEMERIS_TYPE":0,"CLASSIFICATION_TYPE":"U","NORAD_CAT_ID":27632,"ELEMENT_SET_NO":999,"REV_AT_EPOCH":4323,"BSTAR":0,"MEAN_MOTION_DOT":-6.5e-7,"MEAN_MOTION_DDOT":0},{"OBJECT_NAME":"ANIK F2","OBJECT_ID":"2004-027A","EPOCH":"2026-03-14T13:06:53.165952","MEAN_MOTION":1.00272151,"ECCENTRICITY":0.00033856,"INCLINATION":3.0393,"RA_OF_ASC_NODE":80.7016,"ARG_OF_PERICENTER":306.152,"MEAN_ANOMALY":230.9175,"EPHEMERIS_TYPE":0,"CLASSIFICATION_TYPE":"U","NORAD_CAT_ID":28378,"ELEMENT_SET_NO":999,"REV_AT_EPOCH":4031,"BSTAR":0,"MEAN_MOTION_DOT":-4.9e-7,"MEAN_MOTION_DDOT":0},{"OBJECT_NAME":"ANIK F1R","OBJECT_ID":"2005-036A","EPOCH":"2026-03-14T12:35:03.496128","MEAN_MOTION":1.00272228,"ECCENTRICITY":0.00029287,"INCLINATION":4.0691,"RA_OF_ASC_NODE":77.7564,"ARG_OF_PERICENTER":306.3166,"MEAN_ANOMALY":229.5306,"EPHEMERIS_TYPE":0,"CLASSIFICATION_TYPE":"U","NORAD_CAT_ID":28868,"ELEMENT_SET_NO":999,"REV_AT_EPOCH":4550,"BSTAR":0,"MEAN_MOTION_DOT":-7.4e-7,"MEAN_MOTION_DDOT":0},{"OBJECT_NAME":"ANIK F3","OBJECT_ID":"2007-009A","EPOCH":"2026-03-14T13:41:53.848896","MEAN_MOTION":1.0027237,"ECCENTRICITY":0.00027123,"INCLINATION":0.9513,"RA_OF_ASC_NODE":85.0487,"ARG_OF_PERICENTER":275.2305,"MEAN_ANOMALY":258.6635,"EPHEMERIS_TYPE":0,"CLASSIFICATION_TYPE":"U","NORAD_CAT_ID":31102,"ELEMENT_SET_NO":999,"REV_AT_EPOCH":4561,"BSTAR":0,"MEAN_MOTION_DOT":-1.0e-8,"MEAN_MOTION_DDOT":0},{"OBJECT_NAME":"NIMIQ 4","OBJECT_ID":"2008-044A","EPOCH":"2026-03-14T13:15:14.864832","MEAN_MOTION":1.00271299,"ECCENTRICITY":0.00023736,"INCLINATION":0.0201,"RA_OF_ASC_NODE":118.874,"ARG_OF_PERICENTER":237.2188,"MEAN_ANOMALY":292.8724,"EPHEMERIS_TYPE":0,"CLASSIFICATION_TYPE":"U","NORAD_CAT_ID":33373,"ELEMENT_SET_NO":999,"REV_AT_EPOCH":6403,"BSTAR":0,"MEAN_MOTION_DOT":-2.21e-6,"MEAN_MOTION_DDOT":0},{"OBJECT_NAME":"TELSTAR 11N","OBJECT_ID":"2009-009A","EPOCH":"2026-03-14T01:29:04.359264","MEAN_MOTION":1.00269997,"ECCENTRICITY":0.00024462,"INCLINATION":0.0189,"RA_OF_ASC_NODE":150.5232,"ARG_OF_PERICENTER":197.1653,"MEAN_ANOMALY":168.6936,"EPHEMERIS_TYPE":0,"CLASSIFICATION_TYPE":"U","NORAD_CAT_ID":34111,"ELEMENT_SET_NO":999,"REV_AT_EPOCH":4529,"BSTAR":0,"MEAN_MOTION_DOT":-2.51e-6,"MEAN_MOTION_DDOT":0},{"OBJECT_NAME":"TERRESTAR-1","OBJECT_ID":"2009-035A","EPOCH":"2026-03-14T13:06:53.165952","MEAN_MOTION":1.00273143,"ECCENTRICITY":0.00030715,"INCLINATION":5.1035,"RA_OF_ASC_NODE":48.8292,"ARG_OF_PERICENTER":310.2935,"MEAN_ANOMALY":258.7525,"EPHEMERIS_TYPE":0,"CLASSIFICATION_TYPE":"U","NORAD_CAT_ID":35496,"ELEMENT_SET_NO":999,"REV_AT_EPOCH":6118,"BSTAR":0,"MEAN_MOTION_DOT":-5.4e-7,"MEAN_MOTION_DDOT":0},{"OBJECT_NAME":"NIMIQ 5","OBJECT_ID":"2009-050A","EPOCH":"2026-03-14T15:21:34.296192","MEAN_MOTION":1.00271591,"ECCENTRICITY":0.000269,"INCLINATION":0.0253,"RA_OF_ASC_NODE":248.1383,"ARG_OF_PERICENTER":112.5985,"MEAN_ANOMALY":329.2054,"EPHEMERIS_TYPE":0,"CLASSIFICATION_TYPE":"U","NORAD_CAT_ID":35873,"ELEMENT_SET_NO":999,"REV_AT_EPOCH":6039,"BSTAR":0,"MEAN_MOTION_DOT":-2.58e-6,"MEAN_MOTION_DDOT":0},{"OBJECT_NAME":"SKYTERRA 1","OBJECT_ID":"2010-061A","EPOCH":"2026-03-14T13:09:45.390528","MEAN_MOTION":1.00272494,"ECCENTRICITY":0.00015923,"INCLINATION":4.9228,"RA_OF_ASC_NODE":50.8975,"ARG_OF_PERICENTER":328.7927,"MEAN_ANOMALY":248.597,"EPHEMERIS_TYPE":0,"CLASSIFICATION_TYPE":"U","NORAD_CAT_ID":37218,"ELEMENT_SET_NO":999,"REV_AT_EPOCH":5624,"BSTAR":0,"MEAN_MOTION_DOT":-1.16e-6,"MEAN_MOTION_DDOT":0},{"OBJECT_NAME":"TELSTAR 14R","OBJECT_ID":"2011-021A","EPOCH":"2026-03-14T13:20:36.849984","MEAN_MOTION":1.00268476,"ECCENTRICITY":0.00022273,"INCLINATION":0.025,"RA_OF_ASC_NODE":147.8978,"ARG_OF_PERICENTER":212.2088,"MEAN_ANOMALY":309.2273,"EPHEMERIS_TYPE":0,"CLASSIFICATION_TYPE":"U","NORAD_CAT_ID":37602,"ELEMENT_SET_NO":999,"REV_AT_EPOCH":5488,"BSTAR":0,"MEAN_MOTION_DOT":0,"MEAN_MOTION_DDOT":0},{"OBJECT_NAME":"NIMIQ 6","OBJECT_ID":"2012-026A","EPOCH":"2026-03-14T13:12:37.615968","MEAN_MOTION":1.00271616,"ECCENTRICITY":0.00025055,"INCLINATION":0.0313,"RA_OF_ASC_NODE":269.1058,"ARG_OF_PERICENTER":84.6566,"MEAN_ANOMALY":285.4533,"EPHEMERIS_TYPE":0,"CLASSIFICATION_TYPE":"U","NORAD_CAT_ID":38342,"ELEMENT_SET_NO":999,"REV_AT_EPOCH":4946,"BSTAR":0,"MEAN_MOTION_DOT":-1.74e-6,"MEAN_MOTION_DDOT":0},{"OBJECT_NAME":"ANIK G1","OBJECT_ID":"2013-014A","EPOCH":"2026-03-14T12:35:03.452928","MEAN_MOTION":1.00272216,"ECCENTRICITY":0.00026963,"INCLINATION":0.0289,"RA_OF_ASC_NODE":252.9993,"ARG_OF_PERICENTER":81.9235,"MEAN_ANOMALY":278.6674,"EPHEMERIS_TYPE":0,"CLASSIFICATION_TYPE":"U","NORAD_CAT_ID":39127,"ELEMENT_SET_NO":999,"REV_AT_EPOCH":4730,"BSTAR":0,"MEAN_MOTION_DOT":-7.5e-7,"MEAN_MOTION_DDOT":0},{"OBJECT_NAME":"TELSTAR 12V","OBJECT_ID":"2015-068A","EPOCH":"2026-03-14T10:08:59.500032","MEAN_MOTION":1.00271814,"ECCENTRICITY":0.00025647,"INCLINATION":0.0171,"RA_OF_ASC_NODE":137.8627,"ARG_OF_PERICENTER":222.5823,"MEAN_ANOMALY":308.8421,"EPHEMERIS_TYPE":0,"CLASSIFICATION_TYPE":"U","NORAD_CAT_ID":41036,"ELEMENT_SET_NO":999,"REV_AT_EPOCH":3767,"BSTAR":0,"MEAN_MOTION_DOT":-1.2e-6,"MEAN_MOTION_DDOT":0},{"OBJECT_NAME":"VIASAT-2","OBJECT_ID":"2017-029A","EPOCH":"2026-03-13T21:54:32.432832","MEAN_MOTION":1.00271485,"ECCENTRICITY":5.234e-5,"INCLINATION":0.0237,"RA_OF_ASC_NODE":251.7614,"ARG_OF_PERICENTER":154.6739,"MEAN_ANOMALY":23.821,"EPHEMERIS_TYPE":0,"CLASSIFICATION_TYPE":"U","NORAD_CAT_ID":42740,"ELEMENT_SET_NO":999,"REV_AT_EPOCH":3224,"BSTAR":0,"MEAN_MOTION_DOT":-2.66e-6,"MEAN_MOTION_DDOT":0},{"OBJECT_NAME":"LEO 1 (LEO VANTAGE 1)","OBJECT_ID":"2018-004C","EPOCH":"2026-03-14T14:47:23.708832","MEAN_MOTION":14.67241047,"ECCENTRICITY":0.03525247,"INCLINATION":99.2472,"RA_OF_ASC_NODE":339.5756,"ARG_OF_PERICENTER":9.8225,"MEAN_ANOMALY":350.9635,"EPHEMERIS_TYPE":0,"CLASSIFICATION_TYPE":"U","NORAD_CAT_ID":43113,"ELEMENT_SET_NO":999,"REV_AT_EPOCH":42361,"BSTAR":0.00041691119,"MEAN_MOTION_DOT":6.011e-5,"MEAN_MOTION_DDOT":0},{"OBJECT_NAME":"TELSTAR 19V","OBJECT_ID":"2018-059A","EPOCH":"2026-03-14T01:50:06.785088","MEAN_MOTION":1.00271403,"ECCENTRICITY":0.00010018,"INCLINATION":0.0197,"RA_OF_ASC_NODE":170.78,"ARG_OF_PERICENTER":268.0214,"MEAN_ANOMALY":57.4139,"EPHEMERIS_TYPE":0,"CLASSIFICATION_TYPE":"U","NORAD_CAT_ID":43562,"ELEMENT_SET_NO":999,"REV_AT_EPOCH":2819,"BSTAR":0,"MEAN_MOTION_DOT":-2.8e-6,"MEAN_MOTION_DDOT":0},{"OBJECT_NAME":"TELSTAR 18V","OBJECT_ID":"2018-069A","EPOCH":"2026-03-14T10:52:40.310112","MEAN_MOTION":1.00272233,"ECCENTRICITY":0.00021178,"INCLINATION":0.0181,"RA_OF_ASC_NODE":239.1072,"ARG_OF_PERICENTER":117.3545,"MEAN_ANOMALY":116.7669,"EPHEMERIS_TYPE":0,"CLASSIFICATION_TYPE":"U","NORAD_CAT_ID":43611,"ELEMENT_SET_NO":999,"REV_AT_EPOCH":2768,"BSTAR":0,"MEAN_MOTION_DOT":-2.94e-6,"MEAN_MOTION_DDOT":0}]
